{"type": "FeatureCollection", "features": [ {"type": "Feature", "properties": {"norad_id": 54031, "name": "COSMOS 2559 (707K)", "group": "gnss", "lat": 12.809837444772498, "lon": -33.055421226777575, "alt_km": 19158.11838877926, "timestamp": "2025-12-25T07:41:09.967353+00:00", "meta": {"OBJECT_NAME": "COSMOS 2559 (707K)", "OBJECT_ID": "2022-130A", "EPOCH": "2025-12-22T22:55:41.357856", "MEAN_MOTION": 2.13101293, "ECCENTRICITY": 0.00115202, "INCLINATION": 64.3764, "RA_OF_ASC_NODE": 320.7818, "ARG_OF_PERICENTER": 191.7582, "MEAN_ANOMALY": 168.2129, "EPHEMERIS_TYPE": 0, "CLASSIFICATION_TYPE": "U", "NORAD_CAT_ID": 54031, "ELEMENT_SET_NO": 999, "REV_AT_EPOCH": 2493, "BSTAR": 0, "MEAN_MOTION_DOT": -4e-07, "MEAN_MOTION_DDOT": 0}, "tle": {"line1": "1 54031U 22130A   25356.95533979 -.00000040  00000+0  00000+0 0  9995", "line2": "2 54031  64.3764 320.7818 0011520 191.7582 168.2129  2.13101293 24935"}}, "geometry": {"type": "Point", "coordinates": [-33.055421226777575, 12.809837444772498]}}, {"type": "Feature", "properties": {"norad_id": 54377, "name": "COSMOS 2564 (761)", "group": "gnss", "lat": 40.75673233374928, "lon": -5.539916214612718, "alt_km": 19117.703801489235, "timestamp": "2025-12-25T07:41:09.967365+00:00", "meta": {"OBJECT_NAME": "COSMOS 2564 (761)", "OBJECT_ID": "2022-161A", "EPOCH": "2025-12-22T19:11:15.319968", "MEAN_MOTION": 2.13102038, "ECCENTRICITY": 0.00085475, "INCLINATION": 64.7388, "RA_OF_ASC_NODE": 198.5646, "ARG_OF_PERICENTER": 203.7096, "MEAN_ANOMALY": 156.316, "EPHEMERIS_TYPE": 0, "CLASSIFICATION_TYPE": "U", "NORAD_CAT_ID": 54377, "ELEMENT_SET_NO": 999, "REV_AT_EPOCH": 2387, "BSTAR": 0, "MEAN_MOTION_DOT": 9.5e-07, "MEAN_MOTION_DDOT": 0}, "tle": {"line1": "1 54377U 22161A   25356.79948287  .00000095  00000+0  00000+0 0  9995", "line2": "2 54377  64.7388 198.5646 0008547 203.7096 156.3160  2.13102038 23876"}}, "geometry": {"type": "Point", "coordinates": [-5.539916214612718, 40.75673233374928]}}, {"type": "Feature", "properties": {"norad_id": 55268, "name": "GPS BIII-6  (PRN 28)", "group": "gnss", "lat": -54.946402763870495, "lon": 59.41663087034864, "alt_km": 20188.69631179406, "timestamp": "2025-12-25T07:41:09.967376+00:00", "meta": {"OBJECT_NAME": "GPS BIII-6  (PRN 28)", "OBJECT_ID": "2023-009A", "EPOCH": "2025-12-22T10:59:58.065216", "MEAN_MOTION": 2.00554901, "ECCENTRICITY": 0.00037047, "INCLINATION": 55.1065, "RA_OF_ASC_NODE": 155.4638, "ARG_OF_PERICENTER": 355.7912, "MEAN_ANOMALY": 4.4255, "EPHEMERIS_TYPE": 0, "CLASSIFICATION_TYPE": "U", "NORAD_CAT_ID": 55268, "ELEMENT_SET_NO": 999, "REV_AT_EPOCH": 2170, "BSTAR": 0, "MEAN_MOTION_DOT": 7.4e-07, "MEAN_MOTION_DDOT": 0}, "tle": {"line1": "1 55268U 23009A   25356.45831094  .00000074  00000+0  00000+0 0  9994", "line2": "2 55268  55.1065 155.4638 0003704 355.7912   4.4255  2.00554901 21704"}}, "geometry": {"type": "Point", "coordinates": [59.41663087034864, -54.946402763870495]}}, {"type": "Feature", "properties": {"norad_id": 56564, "name": "BEIDOU-3 G4 (C62)", "group": "gnss", "lat": 0.7225647635076314, "lon": 9.408157663910117, "alt_km": 35796.55644179174, "timestamp": "2025-12-25T07:41:09.967390+00:00", "meta": {"OBJECT_NAME": "BEIDOU-3 G4 (C62)", "OBJECT_ID": "2023-066A", "EPOCH": "2025-12-24T22:25:17.507424", "MEAN_MOTION": 1.00270898, "ECCENTRICITY": 0.00025764, "INCLINATION": 0.7896, "RA_OF_ASC_NODE": 302.9846, "ARG_OF_PERICENTER": 228.9181, "MEAN_ANOMALY": 58.1769, "EPHEMERIS_TYPE": 0, "CLASSIFICATION_TYPE": "U", "NORAD_CAT_ID": 56564, "ELEMENT_SET_NO": 999, "REV_AT_EPOCH": 964, "BSTAR": 0, "MEAN_MOTION_DOT": -9e-07, "MEAN_MOTION_DDOT": 0}, "tle": {"line1": "1 56564U 23066A   25358.93423041 -.00000090  00000+0  00000+0 0  9990", "line2": "2 56564   0.7896 302.9846 0002576 228.9181  58.1769  1.00270898  9641"}}, "geometry": {"type": "Point", "coordinates": [9.408157663910117, 0.7225647635076314]}}, {"type": "Feature", "properties": {"norad_id": 56759, "name": "NVS-01 (IRNSS-1J)", "group": "gnss", "lat": 2.577325937108248, "lon": -20.976096460315635, "alt_km": 35773.45121281764, "timestamp": "2025-12-25T07:41:09.967401+00:00", "meta": {"OBJECT_NAME": "NVS-01 (IRNSS-1J)", "OBJECT_ID": "2023-076A", "EPOCH": "2025-12-24T18:51:08.017344", "MEAN_MOTION": 1.00271242, "ECCENTRICITY": 0.00088769, "INCLINATION": 2.5904, "RA_OF_ASC_NODE": 251.1711, "ARG_OF_PERICENTER": 17.2003, "MEAN_ANOMALY": 237.5326, "EPHEMERIS_TYPE": 0, "CLASSIFICATION_TYPE": "U", "NORAD_CAT_ID": 56759, "ELEMENT_SET_NO": 999, "REV_AT_EPOCH": 936, "BSTAR": 0, "MEAN_MOTION_DOT": -3.13e-06, "MEAN_MOTION_DDOT": 0}, "tle": {"line1": "1 56759U 23076A   25358.78550946 -.00000313  00000+0  00000+0 0  9993", "line2": "2 56759   2.5904 251.1711 0008876  17.2003 237.5326  1.00271242  9369"}}, "geometry": {"type": "Point", "coordinates": [-20.976096460315635, 2.577325937108248]}}, {"type": "Feature", "properties": {"norad_id": 57517, "name": "COSMOS 2569 (703K)", "group": "gnss", "lat": 49.19941290266357, "lon": -133.8319153657277, "alt_km": 19150.87151554655, "timestamp": "2025-12-25T07:41:09.967413+00:00", "meta": {"OBJECT_NAME": "COSMOS 2569 (703K)", "OBJECT_ID": "2023-114A", "EPOCH": "2025-12-23T18:01:56.220096", "MEAN_MOTION": 2.13103974, "ECCENTRICITY": 0.00109355, "INCLINATION": 65.1997, "RA_OF_ASC_NODE": 78.5414, "ARG_OF_PERICENTER": 287.1018, "MEAN_ANOMALY": 72.827, "EPHEMERIS_TYPE": 0, "CLASSIFICATION_TYPE": "U", "NORAD_CAT_ID": 57517, "ELEMENT_SET_NO": 999, "REV_AT_EPOCH": 1852, "BSTAR": 0, "MEAN_MOTION_DOT": 1e-08, "MEAN_MOTION_DDOT": 0}, "tle": {"line1": "1 57517U 23114A   25357.75134514  .00000001  00000+0  00000+0 0  9997", "line2": "2 57517  65.1997  78.5414 0010935 287.1018  72.8270  2.13103974 18520"}}, "geometry": {"type": "Point", "coordinates": [-133.8319153657277, 49.19941290266357]}}, {"type": "Feature", "properties": {"norad_id": 58654, "name": "BEIDOU-3 M28 (C50)", "group": "gnss", "lat": -2.6563403618207353, "lon": 66.37317105360685, "alt_km": 21527.663488077676, "timestamp": "2025-12-25T07:41:09.967423+00:00", "meta": {"OBJECT_NAME": "BEIDOU-3 M28 (C50)", "OBJECT_ID": "2023-207A", "EPOCH": "2025-12-23T17:08:25.533024", "MEAN_MOTION": 1.86229696, "ECCENTRICITY": 0.00028713, "INCLINATION": 55.5937, "RA_OF_ASC_NODE": 68.2298, "ARG_OF_PERICENTER": 275.1516, "MEAN_ANOMALY": 84.8693, "EPHEMERIS_TYPE": 0, "CLASSIFICATION_TYPE": "U", "NORAD_CAT_ID": 58654, "ELEMENT_SET_NO": 999, "REV_AT_EPOCH": 1357, "BSTAR": 0, "MEAN_MOTION_DOT": -2.6e-07, "MEAN_MOTION_DDOT": 0}, "tle": {"line1": "1 58654U 23207A   25357.71418441 -.00000026  00000+0  00000+0 0  9991", "line2": "2 58654  55.5937  68.2298 0002871 275.1516  84.8693  1.86229696 13577"}}, "geometry": {"type": "Point", "coordinates": [66.37317105360685, -2.6563403618207353]}}, {"type": "Feature", "properties": {"norad_id": 58655, "name": "BEIDOU-3 M26 (C48)", "group": "gnss", "lat": 37.49180476115137, "lon": -143.48922944647754, "alt_km": 21530.66893614946, "timestamp": "2025-12-25T07:41:09.967434+00:00", "meta": {"OBJECT_NAME": "BEIDOU-3 M26 (C48)", "OBJECT_ID": "2023-207B", "EPOCH": "2025-12-22T23:23:41.171712", "MEAN_MOTION": 1.86231234, "ECCENTRICITY": 0.00041871, "INCLINATION": 55.5951, "RA_OF_ASC_NODE": 68.241, "ARG_OF_PERICENTER": 260.4893, "MEAN_ANOMALY": 99.5155, "EPHEMERIS_TYPE": 0, "CLASSIFICATION_TYPE": "U", "NORAD_CAT_ID": 58655, "ELEMENT_SET_NO": 999, "REV_AT_EPOCH": 1354, "BSTAR": 0, "MEAN_MOTION_DOT": -2.8e-07, "MEAN_MOTION_DDOT": 0}, "tle": {"line1": "1 58655U 23207B   25356.97478208 -.00000028  00000+0  00000+0 0  9998", "line2": "2 58655  55.5951  68.2410 0004187 260.4893  99.5155  1.86231234 13541"}}, "geometry": {"type": "Point", "coordinates": [-143.48922944647754, 37.49180476115137]}}, {"type": "Feature", "properties": {"norad_id": 59598, "name": "GSAT0225 (GALILEO 29)", "group": "gnss", "lat": 53.578477696289085, "lon": 177.3781433859357, "alt_km": 23218.04061881867, "timestamp": "2025-12-25T07:41:09.967445+00:00", "meta": {"OBJECT_NAME": "GSAT0225 (GALILEO 29)", "OBJECT_ID": "2024-079A", "EPOCH": "2025-12-22T20:21:50.564160", "MEAN_MOTION": 1.70474954, "ECCENTRICITY": 0.0002219, "INCLINATION": 55.0069, "RA_OF_ASC_NODE": 106.0132, "ARG_OF_PERICENTER": 188.6953, "MEAN_ANOMALY": 173.4251, "EPHEMERIS_TYPE": 0, "CLASSIFICATION_TYPE": "U", "NORAD_CAT_ID": 59598, "ELEMENT_SET_NO": 999, "REV_AT_EPOCH": 1031, "BSTAR": 0, "MEAN_MOTION_DOT": 8e-08, "MEAN_MOTION_DDOT": 0}, "tle": {"line1": "1 59598U 24079A   25356.84850190  .00000008  00000+0  00000+0 0  9990", "line2": "2 59598  55.0069 106.0132 0002219 188.6953 173.4251  1.70474954 10319"}}, "geometry": {"type": "Point", "coordinates": [177.3781433859357, 53.578477696289085]}}, {"type": "Feature", "properties": {"norad_id": 59600, "name": "GSAT0227 (GALILEO 30)", "group": "gnss", "lat": -26.850346975586337, "lon": 85.20164135859387, "alt_km": 23232.89679691544, "timestamp": "2025-12-25T07:41:09.967456+00:00", "meta": {"OBJECT_NAME": "GSAT0227 (GALILEO 30)", "OBJECT_ID": "2024-079C", "EPOCH": "2025-12-21T20:31:35.455872", "MEAN_MOTION": 1.70474868, "ECCENTRICITY": 0.00028355, "INCLINATION": 55.0019, "RA_OF_ASC_NODE": 106.0394, "ARG_OF_PERICENTER": 117.3615, "MEAN_ANOMALY": 242.6419, "EPHEMERIS_TYPE": 0, "CLASSIFICATION_TYPE": "U", "NORAD_CAT_ID": 59600, "ELEMENT_SET_NO": 999, "REV_AT_EPOCH": 1034, "BSTAR": 0, "MEAN_MOTION_DOT": 4e-08, "MEAN_MOTION_DDOT": 0}, "tle": {"line1": "1 59600U 24079C   25355.85527148  .00000004  00000+0  00000+0 0  9994", "line2": "2 59600  55.0019 106.0394 0002835 117.3615 242.6419  1.70474868 10348"}}, "geometry": {"type": "Point", "coordinates": [85.20164135859387, -26.850346975586337]}}]}